NORAD_CAT_ID,OBJECT_NAME,OBJECT_TYPE,EPOCH,MEAN_MOTION,ECCENTRICITY,INCLINATION,RA_OF_ASC_NODE,ARG_OF_PERICENTER,MEAN_ANOMALY,BSTAR,MEAN_MOTION_DOT,MEAN_MOTION_DDOT,TLE_LINE0,TLE_LINE1,TLE_LINE2,SEMIMAJOR_AXIS,PERIOD,APOGEE,PERIGEE,DECAYED
51749.0,STARLINK-3451,PAYLOAD,2022-05-02 22:00:01,15.30782872,0.0001945,53.2165,155.5783,28.3506,141.0995,-0.020514,-0.00579945,0.0,0 STARLINK-3451,1 51749U 22016AM  22122.91668981 -.00579945  00000-0 -20514-1 0  9998,2 51749  53.2165 155.5783 0001945  28.3506 141.0995 15.30782872  3631,6851.611999999999,94.07,474.81,472.145,0.0
51749.0,STARLINK-3451,PAYLOAD,2022-05-03 14:00:01,15.298625,0.000179,53.2172,152.4797,40.862,203.4054,-0.026428,-0.00714906,0.0,0 STARLINK-3451,1 51749U 22016AM  22123.58334491 -.00714906  00000-0 -26428-1 0  9996,2 51749  53.2172 152.4797 0001790  40.8620 203.4054 15.29862500 12380,6854.36,94.126,477.452,474.99800000000016,0.0
51749.0,STARLINK-3451,PAYLOAD,2022-05-03 22:00:00,15.29286729,0.0001847,53.2166,150.9324,33.1366,247.7104,-0.023246,-0.00624154,0.0,0 STARLINK-3451,1 51749U 22016AM  22123.91667824 -.00624154  00000-0 -23246-1 0  9992,2 51749  53.2166 150.9324 0001847  33.1366 247.7104 15.29286729  3635,6856.08,94.162,479.212,476.679,0.0
51749.0,STARLINK-3451,PAYLOAD,2022-05-04 14:00:01,15.28257584,0.000188,53.2161,147.843,37.5488,314.5656,-0.023997,-0.00624187,0.0,0 STARLINK-3451,1 51749U 22016AM  22124.58334491 -.00624187  00000-0 -23997-1 0  9996,2 51749  53.2161 147.8430 0001880  37.5488 314.5656 15.28257584 12533,6859.158,94.225,482.312,479.733,0.0
51749.0,STARLINK-3451,PAYLOAD,2022-05-04 22:00:01,15.27821253,0.0001795,53.2173,146.2955,31.7198,355.1242,-0.028083,-0.00721627,0.0,0 STARLINK-3451,1 51749U 22016AM  22124.91668981 -.00721627  00000-0 -28083-1 0  9995,2 51749  53.2173 146.2955 0001795  31.7198 355.1242 15.27821253  3698,6860.464,94.252,483.56,481.097,0.0
51749.0,STARLINK-3451,PAYLOAD,2022-05-05 06:00:00,15.27313728,0.0002021,53.2175,144.7544,28.8968,31.9776,-0.028692,-0.00725654,0.0,0 STARLINK-3451,1 51749U 22016AM  22125.25001157 -.00725654  00000-0 -28692-1 0  9999,2 51749  53.2175 144.7544 0002021  28.8968  31.9776 15.27313728 12641,6861.984,94.283,485.235,482.462,0.0
51749.0,STARLINK-3451,PAYLOAD,2022-05-05 14:00:01,15.26689627,0.0001473,53.2159,143.2153,35.5042,58.9094,-0.022421,-0.0055995,0.0,0 STARLINK-3451,1 51749U 22016AM  22125.58334491 -.00559950  00000-0 -22421-1 0  9993,2 51749  53.2159 143.2153 0001473  35.5042  58.9094 15.26689627  3635,6863.853,94.322,486.73,484.707,0.0
51749.0,STARLINK-3451,PAYLOAD,2022-05-05 22:00:00,15.26193168,0.0001761999999999,53.2164,141.6735,32.9159,94.3617,-0.023595,-0.00579189,0.0,0 STARLINK-3451,1 51749U 22016AM  22125.91667824 -.00579189  00000-0 -23595-1 0  9998,2 51749  53.2164 141.6735 0001762  32.9159  94.3617 15.26193168  3635,6865.342,94.352,488.417,485.997,0.0
51749.0,STARLINK-3451,PAYLOAD,2022-05-06 08:00:01,15.25653439,0.0001585999999999,53.2171,139.7504,53.5763,203.8772,-0.029952,-0.00720521,0.0,0 STARLINK-3451,1 51749U 22016AM  22126.33334491 -.00720521  00000-0 -29952-1 0  9997,2 51749  53.2171 139.7504 0001586  53.5763 203.8772 15.25653439 12808,6866.9609999999975,94.386,489.915,487.737,0.0
51749.0,STARLINK-3451,PAYLOAD,2022-05-06 14:00:01,15.25273642,0.0001643,53.2171,138.5964,49.3592,141.7701,-0.030494,-0.00724882,0.0,0 STARLINK-3451,1 51749U 22016AM  22126.58334491 -.00724882  00000-0 -30494-1 0  9991,2 51749  53.2171 138.5964 0001643  49.3592 141.7701 15.25273642  3673,6868.101,94.409,491.094,488.837,0.0
51749.0,STARLINK-3451,PAYLOAD,2022-05-07 06:00:02,15.242514800000002,0.0001892,53.2174,135.5242,39.9323,212.7123,-0.031285,-0.00721426,0.0,0 STARLINK-3451,1 51749U 22016AM  22127.25002315 -.00721426  00000-0 -31285-1 0  9993,2 51749  53.2174 135.5242 0001892  39.9323 212.7123 15.24251480 12947,6871.170999999999,94.473,494.336,491.736,0.0
51749.0,STARLINK-3451,PAYLOAD,2022-05-07 14:00:01,15.23745325,0.0001508,53.2171,133.9901,54.1478,228.2381,-0.032065,-0.00727779,0.0,0 STARLINK-3451,1 51749U 22016AM  22127.58334491 -.00727779  00000-0 -32065-1 0  9996,2 51749  53.2171 133.9901 0001508  54.1478 228.2381 15.23745325  3664,6872.693,94.504,495.594,493.521,0.0
51749.0,STARLINK-3451,PAYLOAD,2022-05-07 22:00:00,15.23231459,0.0001631,53.2173,132.4555,44.2961,267.2857,-0.032256,-0.00721426,0.0,0 STARLINK-3451,1 51749U 22016AM  22127.91667824 -.00721426  00000-0 -32256-1 0  9997,2 51749  53.2173 132.4555 0001631  44.2961 267.2857 15.23231459  3657,6874.238,94.536,497.224,494.982,0.0
51749.0,STARLINK-3451,PAYLOAD,2022-05-08 06:00:00,15.22723196,0.0001904,53.2174,130.9254,33.9295,306.2312,-0.032867,-0.00723904,0.0,0 STARLINK-3451,1 51749U 22016AM  22128.25001157 -.00723904  00000-0 -32867-1 0  9997,2 51749  53.2174 130.9254 0001904  33.9295 306.2312 15.22723196 13097,6875.768,94.567,498.942,496.324,0.0
51749.0,STARLINK-3451,PAYLOAD,2022-05-08 14:00:01,15.22214837,0.000152,53.2172,129.3946,45.7077,322.4204,-0.033501,-0.00726572,0.0,0 STARLINK-3451,1 51749U 22016AM  22128.58334491 -.00726572  00000-0 -33501-1 0  9993,2 51749  53.2172 129.3946 0001520  45.7077 322.4204 15.22214837  3645,6877.2980000000025,94.599,500.209,498.11800000000005,0.0
51749.0,STARLINK-3451,PAYLOAD,2022-05-08 22:00:00,15.21701395,0.0001651,53.2173,127.8637,39.4684,356.0171,-0.033743,-0.00721179,0.0,0 STARLINK-3451,1 51749U 22016AM  22128.91667824 -.00721179  00000-0 -33743-1 0  9995,2 51749  53.2173 127.8637 0001651  39.4684 356.0171 15.21701395  3651,6878.845,94.631,501.846,499.575,0.0
51749.0,STARLINK-3451,PAYLOAD,2022-05-09 14:00:01,15.20683175,0.000159,53.2172,124.8099,44.7316,43.6874,-0.034887,-0.00723415,0.0,0 STARLINK-3451,1 51749U 22016AM  22129.58335648 -.00723415  00000-0 -34887-1 0  9990,2 51749  53.2172 124.8099 0001590  44.7316  43.6874 15.20683175 13308,6881.916,94.694,504.875,502.686,0.0
51749.0,STARLINK-3451,PAYLOAD,2022-05-09 22:00:00,15.20173168,0.0001796,53.2174,123.2827,39.2768,74.5965,-0.035434,-0.00723837,0.0,0 STARLINK-3451,1 51749U 22016AM  22129.91667824 -.00723837  00000-0 -35434-1 0  9998,2 51749  53.2174 123.2827 0001796  39.2768  74.5965 15.20173168  3657,6883.455,94.726,506.556,504.084,0.0
51749.0,STARLINK-3451,PAYLOAD,2022-05-10 14:00:01,15.19152927,0.0001842,53.2172,120.236,40.5426,122.5251,-0.03645,-0.00722802,0.0,0 STARLINK-3451,1 51749U 22016AM  22130.58334491 -.00722802  00000-0 -36450-1 0  9994,2 51749  53.2172 120.2360 0001842  40.5426 122.5251 15.19152927 13451,6886.536,94.79,509.67,507.133,0.0
51749.0,STARLINK-3451,PAYLOAD,2022-05-10 18:00:00,15.18898427,0.0001674,53.2174,119.4739,38.1169,316.8667,-0.036768,-0.00723645,0.0,0 STARLINK-3451,1 51749U 22016AM  22130.75001157 -.00723645  00000-0 -36768-1 0  9991,2 51749  53.2174 119.4739 0001674  38.1169 316.8667 15.18898427  3632,6887.306,94.806,510.324,508.018,0.0
51749.0,STARLINK-3451,PAYLOAD,2022-05-11 22:00:00,15.17112927,0.0001797,53.2173,114.1528,44.1093,209.9957,-0.03865,-0.00722471,0.0,0 STARLINK-3451,1 51749U 22016AM  22131.91667824 -.00722471  00000-0 -38650-1 0  9997,2 51749  53.2173 114.1528 0001797  44.1093 209.9957 15.17112927 13658,6892.708000000001,94.917,515.812,513.335,0.0
51749.0,STARLINK-3451,PAYLOAD,2022-05-12 14:00:01,15.16094523,0.000161,53.2173,111.1202,47.9278,248.0178,-0.039988,-0.00725683,0.0,0 STARLINK-3451,1 51749U 22016AM  22132.58334491 -.00725683  00000-0 -39988-1 0  9995,2 51749  53.2173 111.1202 0001610  47.9278 248.0178 15.16094523  1302,6895.795,94.981,518.77,516.549,0.0
51749.0,STARLINK-3451,PAYLOAD,2022-05-12 22:00:00,15.15581859,0.0001792,53.2174,109.604,39.8448,276.1037,-0.040251,-0.0072024,0.0,0 STARLINK-3451,1 51749U 22016AM  22132.91667824 -.00720240  00000-0 -40251-1 0  9990,2 51749  53.2174 109.6040 0001792  39.8448 276.1037 15.15581859  1303,6897.35,95.013,520.451,517.979,0.0
51749.0,STARLINK-3451,PAYLOAD,2022-05-13 06:00:00,15.15073516,0.0002035,53.2174,108.092,30.3964,304.9394,-0.041041,-0.00723595,0.0,0 STARLINK-3451,1 51749U 22016AM  22133.25001157 -.00723595  00000-0 -41041-1 0  9993,2 51749  53.2174 108.0920 0002035  30.3964 304.9394 15.15073516 13858,6898.892,95.045,522.161,519.3530000000002,0.0
51749.0,STARLINK-3451,PAYLOAD,2022-05-13 14:00:01,15.14564458,0.0001529,53.2173,106.5783,46.9182,307.194,-0.041754,-0.00725396,0.0,0 STARLINK-3451,1 51749U 22016AM  22133.58334491 -.00725396  00000-0 -41754-1 0  9991,2 51749  53.2173 106.5783 0001529  46.9182 307.1940 15.14564458  1307,6900.438,95.077,523.3580000000002,521.248,0.0
51749.0,STARLINK-3451,PAYLOAD,2022-05-13 22:00:00,15.14051494,0.0001514,53.2174,105.066,49.545,322.7317,-0.041984,-0.00719299,0.0,0 STARLINK-3451,1 51749U 22016AM  22133.91667824 -.00719299  00000-0 -41984-1 0  9997,2 51749  53.2174 105.0660 0001514  49.5450 322.7317 15.14051494  1309,6901.996999999999,95.109,524.9069999999998,522.817,0.0
51749.0,STARLINK-3451,PAYLOAD,2022-05-14 14:00:01,15.13033931,0.0001615,53.2173,102.0472,43.4651,3.2987,-0.043527,-0.00724266,0.0,0 STARLINK-3451,1 51749U 22016AM  22134.58334491 -.00724266  00000-0 -43527-1 0  9997,2 51749  53.2173 102.0472 0001615  43.4651   3.2987 15.13033931 14060,6905.090999999999,95.173,528.071,525.841,0.0
51749.0,STARLINK-3451,PAYLOAD,2022-05-14 22:00:00,15.12521944,0.0001807,53.2173,100.5384,38.4107,24.6788,-0.043875,-0.00719958,0.0,0 STARLINK-3451,1 51749U 22016AM  22134.91667824 -.00719958  00000-0 -43875-1 0  9991,2 51749  53.2173 100.5384 0001807  38.4107  24.6788 15.12521944  1302,6906.649,95.205,529.762,527.266,0.0
51749.0,STARLINK-3451,PAYLOAD,2022-05-15 14:00:01,15.11503501,0.0001575999999999,53.2173,97.5266,48.8489,45.1143,-0.045364,-0.00723202,0.0,0 STARLINK-3451,1 51749U 22016AM  22135.58335648 -.00723202  00000-0 -45364-1 0  9993,2 51749  53.2173  97.5266 0001576  48.8489  45.1143 15.11503501 14212,6909.751,95.269,532.705,530.5269999999998,0.0
